ONEWEB-0707             
1 61612U 24188U   26015.12205983  .00000656  00000+0  18424-2 0  9990
2 61612  87.8786  66.7608 0001715 119.4651 240.6648 13.10373704 63273
ONEWEB-0708             
1 61613U 24188V   26015.14031390  .00000350  00000+0  96548-3 0  9997
2 61613  87.8774  66.7892 0002358 108.5248 251.6136 13.10370211 63253
